station_id,administrative_level_1,administrative_level_2,elevation,latitude,longitude,name,status
87211,Catamarca,Tinogasta,1201,-28.0673,-67.5653,Tinogasta,N
87466,Córdoba,Marcos Juárez,110,-32.68,-62.12,Marcos Juárez INTA,N
87180,Misiones,Leandro N. Alem,270,-27.65,-55.43,Cerro Azul INTA,N
87829,Chubut,Rawson,10,-43.23,-65.3,Trelew INTA,N
87281,Corrientes,Mercedes,107,-29.226,-58.0857,Mercedes Aero (Ctes.),N
87685,Buenos Aires,Laprida,212,-37.57,-60.77,Laprida,N
87532,La Pampa,Maracó,145,-35.6882,-63.7595,General Pico Aero,N
87548,Buenos Aires,Junín,81,-34.5525,-60.9313,Junín Aero,N
87416,Mendoza,San Martín,653,-33.0732,-68.4649,San Martín (Mza.),N
87568,Buenos Aires,Tigre,4,-34.48,-58.62,Don Torcuato Aero,N
87596,Buenos Aires,Magdalena,22,-35.3512,-57.2925,Punta Indio (BA),N
87349,Córdoba,Rió Segundo,338,-31.6681,-63.882,Pilar Obs.,N
87344,Córdoba,Colón,474,-31.2966,-64.2119,Córdoba Aero,N
87393,Corrientes,Monte Caseros,54,-30.2617,-57.639,Monte Caseros Aero,N
87360,Santa Fe,Castellanos,59,-31.2775,-61.5095,Rafaela Aero,N
87420,Mendoza,Capital,827,-32.8948,-68.8728,Mendoza Obs.,N
87320,La Rioja,Chamical,461,-30.3478,-66.2967,Chamical Aero,N
87008,Jujuy,Cochinoca,3484,-22.83,-65.85,Abra Pampa INTA,N
87484,Buenos Aires,Pergamino,65,-33.93,-60.55,Pergamino INTA,N
87345,Córdoba,Capital,426,-31.4208,-64.1983,Córdoba Obs.,N
87007,Jujuy,Yavi,3459,-22.1033,-65.6008,La Quiaca Obs.,N
87765,Río Negro,Bariloche,840,-41.1475,-71.1643,Bariloche Aero,N
87683,Buenos Aires,Coronel Pringles,247,-38.0043,-61.33,Coronel Pringles Aero,N
87736,Río Negro,Pichi Mahuida,79,-38.9911,-64.0872,Río Colorado,N
87178,Misiones,Capital,125,-27.391,-55.967,Posadas Aero,N
87493,Entre Ríos,Uruguay,25,-32.48,-58.23,Concepción del Uruguay INTA,N
87643,Buenos Aires,Olavarría,166,-36.8906,-60.2228,Olavarría Aero,N
9987013,Córdoba,Punilla,984,-30.86,-64.52,Capilla del Monte INTA,N
87131,Santiago del Estero,Silípica,169,-28.23,-64.15,La María INTA,N
87270,Santa Fe,General Obligado,53,-29.2051,-59.6934,Reconquista Aero,N
9987006,La Pampa,Maracó,143,-35.67,-63.75,General Pico INTA,N
87912,Santa Cruz,Corpen Aike,111,-50.0218,-68.5789,Puerto Santa Cruz Aero,N
87187,Misiones,Oberá,303,-27.4837,-55.1317,Oberá Aero,N
87904,Santa Cruz,Lago Argentino,204,-50.2846,-72.0515,El Calafate Aero,N
87016,Salta,Orán,357,-23.1547,-64.3281,Orán Aero,N
87166,Corrientes,Capital,62,-27.4498,-58.7597,Corrientes Aero,N
87791,Río Negro,Adolfo Alsina,7,-40.8635,-63.007,Viedma Aero,N
87686,Buenos Aires,Tres Arroyos,120,-38.32,-60.25,Barrow INTA,N
87322,La Rioja,Rosario Vera Peñaloza,658,-31.3316,-66.5886,Chepes,N
87909,Santa Cruz,Magallanes,62,-49.3082,-67.8032,San Julián Aero,N
87550,Buenos Aires,Nueve de Julio,76,-35.439,-60.8819,Nueve de Julio,N
9987002,Catamarca,Valle Viejo,525,-28.48,-65.73,Catamarca INTA (Sumalao),N
87395,Entre Ríos,Concordia,38,-31.3022,-58.0015,Concordia Aero,N
87539,Buenos Aires,Trenque Lauquen,95,-35.9692,-62.7262,Trenque Lauquen,N
87043,Jujuy,Palpalá,1302,-24.1786,-65.3263,Jujuy Univ. Nac.,N
87155,Chaco,San Fernando,52,-27.4389,-59.046,Resistencia Aero,N
87534,Córdoba,Presidente Roque Sáenz Peña,137,-34.1278,-63.3676,Laboulaye Aero,N
9987012,Santa Fe,Rosario,50,-33.02,-60.88,Zavalla U.N. Rosario,N
87289,Corrientes,Paso de los Libres,70,-29.6893,-57.1485,Paso de los Libres Aero,N
87453,Córdoba,Rió Cuarto,421,-33.0955,-64.277,Río Cuarto Aero,N
87244,Córdoba,Rió Seco,341,-29.9058,-63.7276,Villa María del Río Seco,N
87385,Entre Ríos,Villaguay,43,-31.85,-59.08,Villaguay Aero,N
87715,Neuquén,Confluencia,271,-38.952,-68.1367,Neuquén Aero,N
9987000,Río Negro,General Roca,242,-39.02,-67.67,Alto Valle INTA,N
87147,Chaco,Comandante Fernández,90,-26.87,-60.45,Pres. Roque Sáenz Peña INTA,N
87356,Santa Fe,Castellanos,92,-30.9568,-61.5323,Sunchales Aero,N
87467,Córdoba,Marcos Juárez,114,-32.6797,-62.1505,Marcos Juárez Aero,N
87276,Corrientes,Bella Vista,70,-28.43,-58.92,Bella Vista INTA,N
87573,Buenos Aires,Merlo,36,-34.6847,-58.7448,Merlo Aero,N
87373,Entre Ríos,Paraná,110,-31.83,-60.52,Paraná INTA,N
87417,Mendoza,San Carlos,940,-33.73,-69.12,La Consulta INTA,N
87637,Buenos Aires,Coronel Suárez,233,-37.4533,-61.8907,Coronel Suárez Aero,N
9987011,San Luis,General Pedernera,515,-33.72,-65.48,Villa Mercedes INTA,N
87222,Catamarca,Valle Viejo,454,-28.5935,-65.7553,Catamarca Aero,N
87800,Río Negro,Bariloche,337,-41.9541,-71.5339,El Bolsón Aero,N
87649,Buenos Aires,Benito Juárez,207,-37.7013,-59.7911,Benito Juárez Aero,N
87371,Santa Fe,La Capital,18,-31.7078,-60.8053,Sauce Viejo Aero,N
9987001,Buenos Aires,Puán,212,-37.85,-63.02,Bordenave INTA,N
87691,Buenos Aires,Balcarce,130,-37.75,-58.3,Balcarce INTA,N
87537,Buenos Aires,General Villegas,117,-34.92,-62.73,General Villegas INTA,N
87553,Buenos Aires,San Fernando,10,-34.455,-58.5845,San Fernando,N
87078,Formosa,Patiño,130,-24.7024,-60.5941,Las Lomitas,N
87046,JUJUY,El Carmen,905,-24.384,-65.0955,Jujuy Aero,N
87494,Buenos Aires,San Pedro,28,-33.68,-59.68,San Pedro INTA,N
87663,Buenos Aires,General Juan Madariaga,9,-37.2353,-57.0188,Villa Gesell Aero,N
87412,Mendoza,San Carlos,940,-33.7747,-69.0426,San Carlos (Mza.),N
87129,Santiago del Estero,Capital,199,-27.7548,-64.2998,Santiago del Estero Aero,N
87173,Corrientes,Ituzaingó,72,-27.5856,-56.6772,Ituzaingó,N
87934,"Tierra del Fuego, Antártida e Islas del Atlántico Sur",Río Grande,22,-53.7802,-67.7587,Río Grande (BA),N
87593,Buenos Aires,La Plata,19,-34.9661,-57.8961,La Plata Aero,N
87022,Salta,General José de San Martín,450,-22.6166,-63.7965,Tartagal Aero,N
9987010,Santa Fe,General Obligado,42,-29.183,-59.866,Reconquista INTA,N
87418,Mendoza,Las Heras,704,-32.8437,-68.7963,Mendoza Aero,N
87750,Buenos Aires,Bahía Blanca,83,-38.7147,-62.163,Bahía Blanca,N
87679,Buenos Aires,Saavedra,304,-37.6082,-62.3865,Pigüé Aero,N
87828,Chubut,Rawson,43,-43.2089,-65.2821,Trelew Aero,N
87789,Buenos Aires,José B. Casas,26,-40.6633,-62.8858,Chacra Experimental Patagones,N
87719,Río Negro,General Roca,265,-38.9412,-67.9785,Cipolletti,N
87311,San Juan,Capital,598,-31.5746,-68.4224,San Juan Aero,N
87569,Buenos Aires,General Sarmiento,26,-34.5552,-58.7305,San Miguel,N
87575,Buenos Aires,Morón,22,-34.67,-58.65,Castelar INTA,N
87680,Buenos Aires,San German,187,-38.2829,-62.9442,San German,N
87623,La Pampa,Capital,191,-36.5932,-64.28,Santa Rosa Aero,N
87144,Chaco,Nueve de Julio,102,-27.08,-61.12,Las Breñas INTA,N
87050,Salta,Metán,855,-25.5243,-64.973,Metán,N
87454,Mendoza,Luján de Cuyo,921,-33.0049,-68.8699,Chacras de Coria,N
87640,Buenos Aires,Bolívar,94,-36.1864,-61.0727,Bolívar Aero,N
87506,Mendoza,Malargüe,1425,-35.4813,-69.5834,Malargüe Aero,N
87788,Buenos Aires,Villalonga,39,-39.9219,-62.7986,Villalonga,N
87938,"Tierra del Fuego, Antártida e Islas del Atlántico Sur",Ushuaia,57,-54.8401,-68.3034,Ushuaia Aero,N
87641,Buenos Aires,Azul,147,-36.832,-59.8864,Azul Aero,N
87163,Misiones,General Manuel Belgrano,815,-26.2779,-53.6713,Bernardo de Irigoyen Aero,N
87152,Formosa,Pirané,78,-26.3,-59.37,El Colorado INTA,N
87162,Formosa,Formosa,60,-26.2124,-58.2293,Formosa Aero,N
87509,Mendoza,San Rafael,748,-34.5908,-68.4017,San Rafael Aero,N
87585,Ciudad Autónoma de Buenos Aires,Distrito Federal,25,-34.5902,-58.484,Buenos Aires,N
87257,Santa Fe,San Cristóbal,88,-29.8756,-61.936,Ceres Aero,N
87468,Santa Fe,General López,113,-33.6823,-61.9614,Venado Tuerto,N
87692,Buenos Aires,General Pueyrredón,21,-37.9321,-57.5815,Mar del Plata Aero,N
87045,Salta,Cerrillos,1250,-24.9,-65.48,Salta INTA,N
9987003,Entre Ríos,Concordia,48,-31.37,-58.12,Concordia INTA,N
87741,Buenos Aires,Villarino,22,-39.38,-62.62,Hilario Ascasubi INTA,N
87648,Buenos Aires,Dolores,9,-36.3169,-57.7169,Dolores Aero,N
9987009,Córdoba,Río Segundo,292,-31.82,-63.77,Manfredi INTA,N
9987015,Córdoba,Unión,125,-33.57,-62.88,Canals INTA,N
87118,Tucumán,Famaillá,363,-27.05,-65.42,Famaillá INTA,N
87823,Chubut,Biedma,136,-42.7555,-65.1015,Puerto Madryn Aero,N
87148,Chaco,Comandante Fernández,93,-26.7464,-60.4868,Pres. Roque Sáenz Peña Aero,N
87065,Salta,Rivadavia,205,-24.1853,-62.8866,Rivadavia,N
87508,Mendoza,San Rafael,692,-34.67,-68.38,Rama Caída INTA,N
87472,Santa Fe,Iriondo,26,-32.55,-60.85,Oliveros INTA,N
87925,Santa Cruz,Güer Aike,19,-51.6116,-69.308,Río Gallegos Aero,N
87624,La Pampa,Capital,165,-36.5,-63.98,Anguil INTA,N
87497,Entre Ríos,Gualeguaychú,21,-33.0125,-58.6108,Gualeguaychú Aero,N
87616,La Pampa,Loventué,312,-36.2126,-65.4317,Victorica,N
87797,Buenos Aires,NA,3,-40.7627,-62.2693,Faro Segunda Barranca,N
87470,Santa Fe,San Martín,96,-32.1921,-61.712,El Trébol,N
87121,Tucumán,Cruz Alta,450,-26.8373,-65.1084,Tucumán Aero,N
87436,San Luis,La Capital,713,-33.2745,-66.3514,San Luis Aero,N
87860,Chubut,Escalante,46,-45.7923,-67.4619,Comodoro Rivadavia Aero,N
87688,Buenos Aires,Tres Arroyos,115,-38.3595,-60.2845,Tres Arroyos,N
87582,Ciudad Autónoma de Buenos Aires,Distrito Federal,6,-34.5589,-58.4198,Aeroparque Buenos Aires,QC
87563,Buenos Aires,Las Flores,38,-36.0415,-59.1371,Las Flores Aero,N
9987014,Buenos Aires,Bragado,50,-35.11,-60.49,Bragado INTA,N
87574,Buenos Aires,Morón,24,-34.6712,-58.6382,Morón Aero,N
87645,Buenos Aires,Tandil,175,-37.2412,-59.2332,Tandil Aero,N
87448,San Luis,General Pedernera,486,-33.7181,-65.3737,Villa Reynolds Aero,N
87359,Santa Fe,Castellanos,100,-31.18,-61.55,Rafaela INTA,N
87896,Santa Cruz,Deseado,80,-47.7337,-65.9078,Puerto Deseado Aero,N
87047,Salta,Capital,1221,-24.8443,-65.4757,Salta Aero,N
87814,Chubut,Paso de Indios,460,-43.8618,-69.0474,Paso de Indios,N
87480,Santa Fe,Rosario,25,-32.9185,-60.7815,Rosario Aero,N
87405,Mendoza,Las Heras,1891,-32.5946,-69.3401,Uspallata,N
87158,Chaco,San Fernando,54,-27.42,-58.93,Colonia Benítez INTA,N
87283,Corrientes,Mercedes,100,-29.17,-58.02,Mercedes INTA (Ctes.),N
87540,Buenos Aires,Trenque Lauquen,95,-35.969,-62.7261,Trenque Lauquen,N
87761,Neuquén,Lacar,779,-40.0805,-71.1442,Chapelco Aero,N
87544,Buenos Aires,Pehuajó,87,-35.8407,-61.8598,Pehuajó Aero,N
87444,San Luis,Junín,620,-32.379,-65.1799,Santa Rosa de Conlara Aero,N
87313,San Juan,Angaco,615,-31.37,-68.32,San Juan INTA,N
87328,Córdoba,San Javier,569,-31.9513,-65.149,Villa Dolores Aero,N
87571,Buenos Aires,Tres de Febrero,12,-34.603,-58.6126,El Palomar Aero,N
87576,Buenos Aires,Esteban Echeverría,20,-34.818600000000004,-58.5423,Ezeiza Aero,N
87558,Buenos Aires,Mercedes,40,-34.6608,-59.4369,Mercedes,N
87784,Río Negro,San Antonio,20,-40.7572,-65.0309,San Antonio Oeste Aero,N
87097,Misiones,Iguazú,270,-25.7309,-54.4775,Iguazú Aero,N
87217,La Rioja,Capital,429,-29.3825,-66.7933,La Rioja Aero,N
87880,Santa Cruz,Rió Chico,357,-48.7824,-70.1627,Gobernador Gregores Aero,N
87936,"Tierra del Fuego, Antártida e Islas del Atlántico Sur",Ushuaia,105,-54.7,-67.25,Tolhuin,N
87374,Entre Ríos,Paraná,78,-31.7904,-60.4842,Paraná Aero,N
87803,Chubut,Futaleufú,797,-42.9059,-71.145,Esquel Aero,N
87305,San Juan,Jáchal,1175,-30.2294,-68.739,Jáchal,N
87852,Santa Cruz,Lago Buenos Aires,429,-46.538,-70.9853,Perito Moreno Aero,N
87774,Río Negro,Veinticinco de Mayo,888,-41.2439,-68.7065,Maquinchao,N
87213,La Rioja,Chilecito,945,-29.2184,-67.4425,Chilecito Aero,N
